[Satellite]
VERSION=1.1
NAME=LUSAT (LO-19)
NICKNAME=LO-19
TLE1=1 20442U 90005G   19316.79439022  .00000001  00000-0  16515-4 0  9995
TLE2=2 20442  98.6641 258.6398 0012872  77.0083 283.2537 14.32937709557444
STATUS=0
